NORAD_CAT_ID,OBJECT_NAME,OBJECT_TYPE,EPOCH,MEAN_MOTION,ECCENTRICITY,INCLINATION,RA_OF_ASC_NODE,ARG_OF_PERICENTER,MEAN_ANOMALY,BSTAR,MEAN_MOTION_DOT,MEAN_MOTION_DDOT,TLE_LINE0,TLE_LINE1,TLE_LINE2,SEMIMAJOR_AXIS,PERIOD,APOGEE,PERIGEE,DECAYED
52579.0,STARLINK-3893,PAYLOAD,2024-04-22 20:56:50,15.08852415,0.0001213,53.2177,332.8723,110.7513,249.3609,0.00099692,0.00015619,0.0,0 STARLINK-3893,1 52579U 22051AV  24113.87280828  .00015619  00000-0  99692-3 0  9992,2 52579  53.2177 332.8723 0001213 110.7513 249.3609 15.08852415107918,6917.842,95.437,540.547,538.868,0.0
52579.0,STARLINK-3893,PAYLOAD,2024-04-23 20:47:37,15.08846127,0.0001482,53.2167,328.4174,67.9744,292.1405,0.00038034,5.771e-05,0.0,0 STARLINK-3893,1 52579U 22051AV  24114.86641167  .00005771  00000-0  38034-3 0  9990,2 52579  53.2167 328.4174 0001482  67.9744 292.1405 15.08846127108065,6917.862,95.437,540.752,538.701,0.0
52579.0,STARLINK-3893,PAYLOAD,2024-04-24 20:38:25,15.08828833,9.95e-05,53.2178,323.9572,99.2239,260.8866,-0.00019481,-3.386e-05,0.0,0 STARLINK-3893,1 52579U 22051AV  24115.86001242 -.00003386  00000-0 -19481-3 0  9992,2 52579  53.2178 323.9572 0000995  99.2239 260.8866 15.08828833108218,6917.915,95.438,540.468,539.091,0.0
52579.0,STARLINK-3893,PAYLOAD,2024-04-24 23:49:11,15.08832837,8.23e-05,53.2176,323.3608,76.3838,283.7246,-3.2296e-05,-8.01e-06,0.0,0 STARLINK-3893,1 52579U 22051AV  24115.99249327 -.00000801  00000-0 -32296-4 0  9993,2 52579  53.2176 323.3608 0000823  76.3838 283.7246 15.08832837108160,6917.902,95.438,540.337,539.198,0.0
52579.0,STARLINK-3893,PAYLOAD,2024-04-25 20:29:12,15.08842975,0.0001343,53.2189,319.4927,97.6777,262.4367,0.00023187,3.405e-05,0.0,0 STARLINK-3893,1 52579U 22051AV  24116.85361574  .00003405  00000-0  23187-3 0  9997,2 52579  53.2189 319.4927 0001343  97.6777 262.4367 15.08842975108364,6917.871,95.437,540.665,538.807,0.0
52579.0,STARLINK-3893,PAYLOAD,2024-04-26 13:58:27,15.08831072,0.0002435,53.22,316.2229,83.2386,276.8883,3.6507e-05,2.93e-06,0.0,0 STARLINK-3893,1 52579U 22051AV  24117.58226667  .00000293  00000-0  36507-4 0  9994,2 52579  53.2200 316.2229 0002435  83.2386 276.8883 15.08831072108478,6917.908,95.438,541.457,538.088,0.0
52579.0,STARLINK-3893,PAYLOAD,2024-04-26 17:09:14,15.08820289,0.0001699,53.2178,315.6269,94.3891,265.7295,-0.00027343,-4.635e-05,0.0,0 STARLINK-3893,1 52579U 22051AV  24117.71474879 -.00004635  00000-0 -27343-3 0  9992,2 52579  53.2178 315.6269 0001699  94.3891 265.7295 15.08820289108498,6917.941,95.439,540.981,538.63,0.0
52579.0,STARLINK-3893,PAYLOAD,2024-04-27 13:49:14,15.08866207,0.0001288,53.2182,311.7614,90.1735,269.9405,0.0017733,0.00028067,0.0,0 STARLINK-3893,1 52579U 22051AV  24118.57586532  .00028067  00000-0  17733-2 0  9991,2 52579  53.2182 311.7614 0001288  90.1735 269.9405 15.08866207108623,6917.8,95.436,540.556,538.774,0.0
52579.0,STARLINK-3893,PAYLOAD,2024-04-27 20:10:46,15.08885079,0.0001169,53.2167,310.5691,83.0469,277.0656,0.0019147,0.00030354,0.0,0 STARLINK-3893,1 52579U 22051AV  24118.84081738  .00030354  00000-0  19147-2 0  9992,2 52579  53.2167 310.5691 0001169  83.0469 277.0656 15.08885079108593,6917.743,95.435,540.416,538.799,0.0
52579.0,STARLINK-3893,PAYLOAD,2024-04-28 12:04:37,15.08849554,0.000154,53.2171,307.5983,100.7877,259.3288,0.00061468,9.511e-05,0.0,0 STARLINK-3893,1 52579U 22051AV  24119.50321545  .00009511  00000-0  61468-3 0  9994,2 52579  53.2171 307.5983 0001540 100.7877 259.3288 15.08849554108762,6917.851,95.437,540.782,538.651,0.0
52579.0,STARLINK-3893,PAYLOAD,2024-04-28 20:01:33,15.08838261,9.8e-05,53.217,306.1107,103.9109,256.1992,0.0011877,0.00018664,0.0,0 STARLINK-3893,1 52579U 22051AV  24119.83441658  .00018664  00000-0  11877-2 0  9995,2 52579  53.2170 306.1107 0000980 103.9109 256.1992 15.08838261108810,6917.886,95.438,540.429,539.073,0.0
52579.0,STARLINK-3893,PAYLOAD,2024-04-29 11:55:25,15.08841933,0.0001148,53.2159,303.1371,91.7747,268.3376,0.00066827,0.00010364,0.0,0 STARLINK-3893,1 52579U 22051AV  24120.49681919  .00010364  00000-0  66827-3 0  9990,2 52579  53.2159 303.1371 0001148  91.7747 268.3376 15.08841933108918,6917.874,95.437,540.534,538.945,0.0
52579.0,STARLINK-3893,PAYLOAD,2024-04-29 19:52:20,15.08844816,9.87e-05,53.2168,301.6504,96.7057,263.4048,0.00047101,7.217e-05,0.0,0 STARLINK-3893,1 52579U 22051AV  24120.82801798  .00007217  00000-0  47101-3 0  9993,2 52579  53.2168 301.6504 0000987  96.7057 263.4048 15.08844816108890,6917.866,95.437,540.413,539.048,0.0
52579.0,STARLINK-3893,PAYLOAD,2024-04-30 05:24:39,15.08841633,0.0001024,53.2161,299.8639,101.1029,259.0078,0.0002752,4.095e-05,0.0,0 STARLINK-3893,1 52579U 22051AV  24121.22545847  .00004095  00000-0  27520-3 0  9992,2 52579  53.2161 299.8639 0001024 101.1029 259.0078 15.08841633109027,6917.875,95.437,540.449,539.032,0.0
52579.0,STARLINK-3893,PAYLOAD,2024-04-30 18:07:44,15.08841692,0.0001026,53.2166,297.4859,88.4168,271.6942,0.0001817,2.605e-05,0.0,0 STARLINK-3893,1 52579U 22051AV  24121.75538029  .00002605  00000-0  18170-3 0  9990,2 52579  53.2166 297.4859 0001026  88.4168 271.6942 15.08841692109039,6917.875,95.437,540.45,539.03,0.0
52579.0,STARLINK-3893,PAYLOAD,2024-05-01 11:36:59,15.08846848,0.0001039,53.2171,294.2146,87.7083,272.4028,0.00028303,4.22e-05,0.0,0 STARLINK-3893,1 52579U 22051AV  24122.48401777  .00004220  00000-0  28303-3 0  9994,2 52579  53.2171 294.2146 0001039  87.7083 272.4028 15.08846848109213,6917.859,95.437,540.443,539.006,0.0
52579.0,STARLINK-3893,PAYLOAD,2024-05-01 21:09:17,15.08857051,0.00012,53.2169,292.4307,94.8556,265.2573,0.00027871,4.153e-05,0.0,0 STARLINK-3893,1 52579U 22051AV  24122.88145078  .00004153  00000-0  27871-3 0  9991,2 52579  53.2169 292.4307 0001200  94.8556 265.2573 15.08857051109205,6917.828,95.436,540.523,538.863,0.0
52579.0,STARLINK-3893,PAYLOAD,2024-05-02 11:27:46,15.08841561,0.00017,53.2175,289.7544,85.1116,275.007,8.2045e-05,1.018e-05,0.0,0 STARLINK-3893,1 52579U 22051AV  24123.47761869  .00001018  00000-0  82045-4 0  9991,2 52579  53.2175 289.7544 0001700  85.1116 275.0070 15.08841561109361,6917.876,95.437,540.917,538.565,0.0
52579.0,STARLINK-3893,PAYLOAD,2024-05-02 14:38:32,15.08839251,0.0001599,53.2176,289.1587,109.6609,250.4556,1.5297e-05,-4.5e-07,0.0,0 STARLINK-3893,1 52579U 22051AV  24123.61009837 -.00000045  00000-0  15297-4 0  9992,2 52579  53.2176 289.1587 0001599 109.6609 250.4556 15.08839251109312,6917.883,95.438,540.854,538.642,0.0
52579.0,STARLINK-3893,PAYLOAD,2024-05-03 14:29:19,15.08844855,0.0001535,53.2169,284.6986,94.8516,265.2651,9.4176e-05,1.211e-05,0.0,0 STARLINK-3893,1 52579U 22051AV  24124.60369785  .00001211  00000-0  94176-4 0  9991,2 52579  53.2169 284.6986 0001535  94.8516 265.2651 15.08844855109461,6917.866,95.437,540.792,538.669,0.0
52579.0,STARLINK-3893,PAYLOAD,2024-05-03 17:40:05,15.08847954,0.0001326,53.2172,284.1064,92.3353,267.7791,0.00020935,3.046e-05,0.0,0 STARLINK-3893,1 52579U 22051AV  24124.73617689  .00003046  00000-0  20935-3 0  9993,2 52579  53.2172 284.1064 0001326  92.3353 267.7791 15.08847954109552,6917.856,95.437,540.638,538.804,0.0
52579.0,STARLINK-3893,PAYLOAD,2024-05-04 03:12:24,15.08838257,0.000139,53.2169,282.3208,87.4835,272.6316,0.00012899,1.765e-05,0.0,0 STARLINK-3893,1 52579U 22051AV  24125.13362156  .00001765  00000-0  12899-3 0  9990,2 52579  53.2169 282.3208 0001390  87.4835 272.6316 15.08838257109610,6917.886,95.438,540.712,538.789,0.0
52579.0,STARLINK-3893,PAYLOAD,2024-05-05 09:24:44,15.0884683,0.0001223,53.2184,276.6719,103.6638,256.449,0.00033923,5.116e-05,0.0,0 STARLINK-3893,1 52579U 22051AV  24126.39218289  .00005116  00000-0  33923-3 0  9991,2 52579  53.2184 276.6719 0001223 103.6638 256.4490 15.08846830109807,6917.86,95.437,540.571,538.878,0.0
52579.0,STARLINK-3893,PAYLOAD,2024-05-05 14:10:53,15.08850814,0.0001311,53.2191,275.7803,106.6458,253.4678,0.00042691,6.515e-05,0.0,0 STARLINK-3893,1 52579U 22051AV  24126.59090189  .00006515  00000-0  42691-3 0  9996,2 52579  53.2191 275.7803 0001311 106.6458 253.4678 15.08850814109767,6917.847,95.437,540.619,538.805,0.0
52579.0,STARLINK-3893,PAYLOAD,2024-05-05 17:21:40,15.08856772,0.0001157,53.2176,275.1845,101.7128,258.3994,0.00058707,9.072e-05,0.0,0 STARLINK-3893,1 52579U 22051AV  24126.72338009  .00009072  00000-0  58707-3 0  9993,2 52579  53.2176 275.1845 0001157 101.7128 258.3994 15.08856772109784,6917.829,95.436,540.495,538.894,0.0
52579.0,STARLINK-3893,PAYLOAD,2024-05-06 14:01:40,15.08848105,0.0001163,53.2168,271.3179,84.9292,275.1833,0.00020748,3.016e-05,0.0,0 STARLINK-3893,1 52579U 22051AV  24127.58449900  .00003016  00000-0  20748-3 0  9997,2 52579  53.2168 271.3179 0001163  84.9292 275.1833 15.08848105109919,6917.856,95.437,540.525,538.916,0.0
52579.0,STARLINK-3893,PAYLOAD,2024-05-06 17:12:26,15.0885375,0.0001281,53.2177,270.7234,86.2651,273.8488,0.00031649,4.754e-05,0.0,0 STARLINK-3893,1 52579U 22051AV  24127.71697705  .00004754  00000-0  31649-3 0  9992,2 52579  53.2177 270.7234 0001281  86.2651 273.8488 15.08853750110004,6917.838,95.437,540.59,538.817,0.0
52579.0,STARLINK-3893,PAYLOAD,2024-05-07 09:06:18,15.08847012,0.0001251,53.2183,267.7504,94.2937,265.8198,0.00010218,1.339e-05,0.0,0 STARLINK-3893,1 52579U 22051AV  24128.37937828  .00001339  00000-0  10218-3 0  9993,2 52579  53.2183 267.7504 0001251  94.2937 265.8198 15.08847012110104,6917.859,95.437,540.589,538.859,0.0
52579.0,STARLINK-3893,PAYLOAD,2024-05-07 13:52:27,15.08847404,0.0001116,53.2177,266.8586,103.6133,256.4983,0.00011906,1.608e-05,0.0,0 STARLINK-3893,1 52579U 22051AV  24128.57809615  .00001608  00000-0  11906-3 0  9991,2 52579  53.2177 266.8586 0001116 103.6133 256.4983 15.08847404110068,6917.858,95.437,540.495,538.951,0.0
52579.0,STARLINK-3893,PAYLOAD,2024-05-07 15:27:50,15.08848648,0.0001222,53.2165,266.5609,87.7542,272.359,0.00017954,2.571e-05,0.0,0 STARLINK-3893,1 52579U 22051AV  24128.64433574  .00002571  00000-0  17954-3 0  9995,2 52579  53.2165 266.5609 0001222  87.7542 272.3590 15.08848648110075,6917.854,95.437,540.564,538.874,0.0
